{"type": "FeatureCollection", "features": [ {"type": "Feature", "properties": {"norad_id": 66817, "name": "STARLINK-35995", "group": "last-30-days", "lat": 42.75561701928416, "lon": -66.01766353590645, "alt_km": 361.94410569504635, "timestamp": "2025-12-19T10:49:59.923223+00:00", "meta": {"OBJECT_NAME": "STARLINK-35995", "OBJECT_ID": "2025-278AC", "EPOCH": "2025-12-19T00:00:02.000160", "MEAN_MOTION": 15.68861274, "ECCENTRICITY": 0.00015878, "INCLINATION": 42.9993, "RA_OF_ASC_NODE": 213.8413, "ARG_OF_PERICENTER": 274.877, "MEAN_ANOMALY": 139.0504, "EPHEMERIS_TYPE": 0, "CLASSIFICATION_TYPE": "U", "NORAD_CAT_ID": 66817, "ELEMENT_SET_NO": 999, "REV_AT_EPOCH": 396, "BSTAR": -0.018140914, "MEAN_MOTION_DOT": -0.01901608, "MEAN_MOTION_DDOT": 0}, "tle": {"line1": "1 66817U 25278AC  25353.00002315 -.01901608  00000+0 -18141-1 0  9993", "line2": "2 66817  42.9993 213.8413 0001587 274.8770 139.0504 15.68861274  3962"}}, "geometry": {"type": "Point", "coordinates": [-66.01766353590645, 42.75561701928416]}}, {"type": "Feature", "properties": {"norad_id": 66818, "name": "STARLINK-35994", "group": "last-30-days", "lat": 42.56364534316539, "lon": -68.60750471824683, "alt_km": 361.869277253174, "timestamp": "2025-12-19T10:49:59.923235+00:00", "meta": {"OBJECT_NAME": "STARLINK-35994", "OBJECT_ID": "2025-278AD", "EPOCH": "2025-12-19T00:00:02.000160", "MEAN_MOTION": 15.68868729, "ECCENTRICITY": 0.00014681, "INCLINATION": 42.9994, "RA_OF_ASC_NODE": 213.8466, "ARG_OF_PERICENTER": 276.6862, "MEAN_ANOMALY": 135.3189, "EPHEMERIS_TYPE": 0, "CLASSIFICATION_TYPE": "U", "NORAD_CAT_ID": 66818, "ELEMENT_SET_NO": 999, "REV_AT_EPOCH": 396, "BSTAR": -0.018211531, "MEAN_MOTION_DOT": -0.01908605, "MEAN_MOTION_DDOT": 0}, "tle": {"line1": "1 66818U 25278AD  25353.00002315 -.01908605  00000+0 -18212-1 0  9997", "line2": "2 66818  42.9994 213.8466 0001468 276.6862 135.3189 15.68868729  3962"}}, "geometry": {"type": "Point", "coordinates": [-68.60750471824683, 42.56364534316539]}}, {"type": "Feature", "properties": {"norad_id": 66819, "name": "STARLINK-35989", "group": "last-30-days", "lat": 42.88808994958306, "lon": -63.413667185812386, "alt_km": 362.0094377890873, "timestamp": "2025-12-19T10:49:59.923248+00:00", "meta": {"OBJECT_NAME": "STARLINK-35989", "OBJECT_ID": "2025-278AE", "EPOCH": "2025-12-18T22:00:00.999936", "MEAN_MOTION": 15.69219965, "ECCENTRICITY": 0.00016093, "INCLINATION": 42.9986, "RA_OF_ASC_NODE": 214.3373, "ARG_OF_PERICENTER": 264.6326, "MEAN_ANOMALY": 39.8622, "EPHEMERIS_TYPE": 0, "CLASSIFICATION_TYPE": "U", "NORAD_CAT_ID": 66819, "ELEMENT_SET_NO": 999, "REV_AT_EPOCH": 395, "BSTAR": -0.018133767, "MEAN_MOTION_DOT": -0.01926373, "MEAN_MOTION_DDOT": 0}, "tle": {"line1": "1 66819U 25278AE  25352.91667824 -.01926373  00000+0 -18134-1 0  9994", "line2": "2 66819  42.9986 214.3373 0001609 264.6326  39.8622 15.69219965  3958"}}, "geometry": {"type": "Point", "coordinates": [-63.413667185812386, 42.88808994958306]}}, {"type": "Feature", "properties": {"norad_id": 66820, "name": "KOMPSAT-7", "group": "last-30-days", "lat": -20.18380200730591, "lon": 116.36485640176065, "alt_km": 566.362639583991, "timestamp": "2025-12-19T10:49:59.923259+00:00", "meta": {"OBJECT_NAME": "KOMPSAT-7", "OBJECT_ID": "2025-279A", "EPOCH": "2025-12-15T00:17:19.244256", "MEAN_MOTION": 15.0015594, "ECCENTRICITY": 0.00093948, "INCLINATION": 97.641, "RA_OF_ASC_NODE": 294.8339, "ARG_OF_PERICENTER": 252.0315, "MEAN_ANOMALY": 107.9885, "EPHEMERIS_TYPE": 0, "CLASSIFICATION_TYPE": "U", "NORAD_CAT_ID": 66820, "ELEMENT_SET_NO": 999, "REV_AT_EPOCH": 199, "BSTAR": 0.00025788518, "MEAN_MOTION_DOT": 3.163e-05, "MEAN_MOTION_DDOT": 0}, "tle": {"line1": "1 66820U 25279A   25349.01202829  .00003163  00000+0  25789-3 0  9990", "line2": "2 66820  97.6410 294.8339 0009394 252.0315 107.9885 15.00155940  1999"}}, "geometry": {"type": "Point", "coordinates": [116.36485640176065, -20.18380200730591]}}, {"type": "Feature", "properties": {"norad_id": 66821, "name": "STARLINK-35966", "group": "last-30-days", "lat": 60.480584235134536, "lon": -139.92688755200845, "alt_km": 402.2138332632212, "timestamp": "2025-12-19T10:49:59.923269+00:00", "meta": {"OBJECT_NAME": "STARLINK-35966", "OBJECT_ID": "2025-280A", "EPOCH": "2025-12-18T22:00:00.999936", "MEAN_MOTION": 15.55831862, "ECCENTRICITY": 0.0003634, "INCLINATION": 69.9997, "RA_OF_ASC_NODE": 181.5048, "ARG_OF_PERICENTER": 277.2899, "MEAN_ANOMALY": 38.9434, "EPHEMERIS_TYPE": 0, "CLASSIFICATION_TYPE": "U", "NORAD_CAT_ID": 66821, "ELEMENT_SET_NO": 999, "REV_AT_EPOCH": 389, "BSTAR": -0.034424397, "MEAN_MOTION_DOT": -0.02125085, "MEAN_MOTION_DDOT": 0}, "tle": {"line1": "1 66821U 25280A   25352.91667824 -.02125085  00000+0 -34424-1 0  9992", "line2": "2 66821  69.9997 181.5048 0003634 277.2899  38.9434 15.55831862  3896"}}, "geometry": {"type": "Point", "coordinates": [-139.92688755200845, 60.480584235134536]}}, {"type": "Feature", "properties": {"norad_id": 66822, "name": "STARLINK-35958", "group": "last-30-days", "lat": 61.85171643410644, "lon": -137.06090029212163, "alt_km": 402.1596335598433, "timestamp": "2025-12-19T10:49:59.923280+00:00", "meta": {"OBJECT_NAME": "STARLINK-35958", "OBJECT_ID": "2025-280B", "EPOCH": "2025-12-18T22:00:00.999936", "MEAN_MOTION": 15.55805554, "ECCENTRICITY": 0.00036948, "INCLINATION": 69.9995, "RA_OF_ASC_NODE": 181.5028, "ARG_OF_PERICENTER": 265.6667, "MEAN_ANOMALY": 52.4847, "EPHEMERIS_TYPE": 0, "CLASSIFICATION_TYPE": "U", "NORAD_CAT_ID": 66822, "ELEMENT_SET_NO": 999, "REV_AT_EPOCH": 389, "BSTAR": -0.033184681, "MEAN_MOTION_DOT": -0.02054945, "MEAN_MOTION_DDOT": 0}, "tle": {"line1": "1 66822U 25280B   25352.91667824 -.02054945  00000+0 -33185-1 0  9992", "line2": "2 66822  69.9995 181.5028 0003694 265.6667  52.4847 15.55805554  3891"}}, "geometry": {"type": "Point", "coordinates": [-137.06090029212163, 61.85171643410644]}}, {"type": "Feature", "properties": {"norad_id": 66823, "name": "STARLINK-35957", "group": "last-30-days", "lat": 63.13867968440398, "lon": -133.98325993631468, "alt_km": 401.9122940185107, "timestamp": "2025-12-19T10:49:59.923290+00:00", "meta": {"OBJECT_NAME": "STARLINK-35957", "OBJECT_ID": "2025-280C", "EPOCH": "2025-12-18T22:00:00.999936", "MEAN_MOTION": 15.55804092, "ECCENTRICITY": 0.00034984, "INCLINATION": 69.9995, "RA_OF_ASC_NODE": 181.4999, "ARG_OF_PERICENTER": 265.3342, "MEAN_ANOMALY": 54.7369, "EPHEMERIS_TYPE": 0, "CLASSIFICATION_TYPE": "U", "NORAD_CAT_ID": 66823, "ELEMENT_SET_NO": 999, "REV_AT_EPOCH": 389, "BSTAR": -0.033190588, "MEAN_MOTION_DOT": -0.0205501, "MEAN_MOTION_DDOT": 0}, "tle": {"line1": "1 66823U 25280C   25352.91667824 -.02055010  00000+0 -33191-1 0  9994", "line2": "2 66823  69.9995 181.4999 0003498 265.3342  54.7369 15.55804092  3897"}}, "geometry": {"type": "Point", "coordinates": [-133.98325993631468, 63.13867968440398]}}, {"type": "Feature", "properties": {"norad_id": 66824, "name": "STARLINK-35896", "group": "last-30-days", "lat": 64.35468154110397, "lon": -130.62175528052757, "alt_km": 401.82333078224383, "timestamp": "2025-12-19T10:49:59.923300+00:00", "meta": {"OBJECT_NAME": "STARLINK-35896", "OBJECT_ID": "2025-280D", "EPOCH": "2025-12-18T22:00:00.999936", "MEAN_MOTION": 15.55800286, "ECCENTRICITY": 0.00035465, "INCLINATION": 69.9995, "RA_OF_ASC_NODE": 181.4979, "ARG_OF_PERICENTER": 264.0603, "MEAN_ANOMALY": 57.927, "EPHEMERIS_TYPE": 0, "CLASSIFICATION_TYPE": "U", "NORAD_CAT_ID": 66824, "ELEMENT_SET_NO": 999, "REV_AT_EPOCH": 389, "BSTAR": -0.033035064, "MEAN_MOTION_DOT": -0.02046177, "MEAN_MOTION_DDOT": 0}, "tle": {"line1": "1 66824U 25280D   25352.91667824 -.02046177  00000+0 -33035-1 0  9996", "line2": "2 66824  69.9995 181.4979 0003546 264.0603  57.9270 15.55800286  3893"}}, "geometry": {"type": "Point", "coordinates": [-130.62175528052757, 64.35468154110397]}}, {"type": "Feature", "properties": {"norad_id": 66825, "name": "STARLINK-35476", "group": "last-30-days", "lat": 65.48921329757138, "lon": -126.95339175045748, "alt_km": 401.77506070294385, "timestamp": "2025-12-19T10:49:59.923310+00:00", "meta": {"OBJECT_NAME": "STARLINK-35476", "OBJECT_ID": "2025-280E", "EPOCH": "2025-12-18T22:00:00.999936", "MEAN_MOTION": 15.5579604, "ECCENTRICITY": 0.00036858, "INCLINATION": 69.9998, "RA_OF_ASC_NODE": 181.4953, "ARG_OF_PERICENTER": 267.9212, "MEAN_ANOMALY": 55.9836, "EPHEMERIS_TYPE": 0, "CLASSIFICATION_TYPE": "U", "NORAD_CAT_ID": 66825, "ELEMENT_SET_NO": 999, "REV_AT_EPOCH": 374, "BSTAR": -0.032884333, "MEAN_MOTION_DOT": -0.02000178, "MEAN_MOTION_DDOT": 0}, "tle": {"line1": "1 66825U 25280E   25352.91667824 -.02000178  00000+0 -32884-1 0  9999", "line2": "2 66825  69.9998 181.4953 0003685 267.9212  55.9836 15.55796040  3743"}}, "geometry": {"type": "Point", "coordinates": [-126.95339175045748, 65.48921329757138]}}, {"type": "Feature", "properties": {"norad_id": 66826, "name": "STARLINK-35898", "group": "last-30-days", "lat": 66.522278687318, "lon": -122.98553690088875, "alt_km": 401.66404875803164, "timestamp": "2025-12-19T10:49:59.923322+00:00", "meta": {"OBJECT_NAME": "STARLINK-35898", "OBJECT_ID": "2025-280F", "EPOCH": "2025-12-18T22:00:00.999936", "MEAN_MOTION": 15.55797517, "ECCENTRICITY": 0.00036373, "INCLINATION": 69.9998, "RA_OF_ASC_NODE": 181.4929, "ARG_OF_PERICENTER": 268.3221, "MEAN_ANOMALY": 57.499, "EPHEMERIS_TYPE": 0, "CLASSIFICATION_TYPE": "U", "NORAD_CAT_ID": 66826, "ELEMENT_SET_NO": 999, "REV_AT_EPOCH": 389, "BSTAR": -0.032961752, "MEAN_MOTION_DOT": -0.02004354, "MEAN_MOTION_DDOT": 0}, "tle": {"line1": "1 66826U 25280F   25352.91667824 -.02004354  00000+0 -32962-1 0  9997", "line2": "2 66826  69.9998 181.4929 0003637 268.3221  57.4990 15.55797517  3893"}}, "geometry": {"type": "Point", "coordinates": [-122.98553690088875, 66.522278687318]}}]}